<?xml version="1.0" encoding="UTF-8"?>
<kml xmlns="http://www.opengis.net/kml/2.2" xmlns:gx="http://www.google.com/kml/ext/2.2">
    <Document id="1">
        <Style id="8">
            <LineStyle id="10">
                <colorMode>normal</colorMode>
                <width>1.0</width>
            </LineStyle>
            <PolyStyle id="9">
                <color>4c757575</color>
                <colorMode>normal</colorMode>
                <fill>1</fill>
                <outline>1</outline>
            </PolyStyle>
        </Style>
        <Placemark id="3">
            <name>NAVAREA-PAC-2687-26</name>
            <description>HYDROPAC 2687/2026 (null)


150900Z SEP 26
HYDROPAC 2687/26.
INDIAN OCEAN.
1. HAZARDOUS OPERATIONS, SPACE DEBRIS
   1223Z TO 1447Z DAILY 22 THRU 28 SEP
   IN AREA BOUND BY
   24-36.00S 072-06.00E, 23-03.00S 076-59.00E,
   21-45.00S 080-57.00E, 18-56.00S 087-42.00E,
   16-14.00S 093-37.00E, 15-16.00S 095-26.00E,
   15-18.00S 095-31.00E, 15-25.00S 095-50.00E,
   15-30.00S 096-12.00E, 15-34.00S 096-34.00E,
   15-34.00S 097-02.00E, 15-33.00S 097-14.00E,
   15-30.00S 097-33.00E, 15-28.00S 097-42.00E,
   15-26.00S 097-50.00E, 15-24.00S 097-58.00E,
   15-22.00S 098-03.00E, 15-19.00S 098-11.00E,
   15-18.00S 098-14.00E, 15-56.00S 098-31.00E,
   17-04.00S 096-38.00E, 19-56.00S 091-02.00E,
   23-02.00S 084-06.00E, 24-59.00S 079-06.00E,
   27-04.00S 073-18.00E.
2. CANCEL THIS MSG 281547Z SEP 26.
</description>
            <styleUrl>#8</styleUrl>
            <Polygon id="2">
                <outerBoundaryIs>
                    <LinearRing id="6">
                        <coordinates>72.1,-24.6,0.0 76.98333333333333,-23.05,0.0 80.95,-21.75,0.0 87.7,-18.933333333333334,0.0 93.61666666666666,-16.233333333333334,0.0 95.43333333333334,-15.266666666666667,0.0 95.51666666666667,-15.3,0.0 95.83333333333333,-15.416666666666666,0.0 96.2,-15.5,0.0 96.56666666666666,-15.566666666666666,0.0 97.03333333333333,-15.566666666666666,0.0 97.23333333333333,-15.55,0.0 97.55,-15.5,0.0 97.7,-15.466666666666667,0.0 97.83333333333333,-15.433333333333334,0.0 97.96666666666667,-15.4,0.0 98.05,-15.366666666666667,0.0 98.18333333333334,-15.316666666666666,0.0 98.23333333333333,-15.3,0.0 98.51666666666667,-15.933333333333334,0.0 96.63333333333334,-17.066666666666666,0.0 91.03333333333333,-19.933333333333334,0.0 84.1,-23.033333333333335,0.0 79.1,-24.983333333333334,0.0 73.3,-27.066666666666666,0.0 72.1,-24.6,0.0</coordinates>
                    </LinearRing>
                </outerBoundaryIs>
            </Polygon>
        </Placemark>
    </Document>
</kml>
