<?xml version="1.0" encoding="UTF-8"?>
<kml xmlns="http://www.opengis.net/kml/2.2" xmlns:gx="http://www.google.com/kml/ext/2.2">
    <Document id="1">
        <Style id="8">
            <LineStyle id="10">
                <colorMode>normal</colorMode>
                <width>1.0</width>
            </LineStyle>
            <PolyStyle id="9">
                <color>4c757575</color>
                <colorMode>normal</colorMode>
                <fill>1</fill>
                <outline>1</outline>
            </PolyStyle>
        </Style>
        <Style id="17">
            <LineStyle id="19">
                <colorMode>normal</colorMode>
                <width>1.0</width>
            </LineStyle>
            <PolyStyle id="18">
                <color>4c757575</color>
                <colorMode>normal</colorMode>
                <fill>1</fill>
                <outline>1</outline>
            </PolyStyle>
        </Style>
        <Placemark id="3">
            <name>NAVAREA IV 897/2026 AREA A</name>
            <description>NAVAREA IV 897/2026 (null)


150802Z SEP 26
NAVAREA IV 897/26.
GULF OF AMERICA.
YUCATAN CHANNEL.
TEXAS.
1. HAZARDOUS OPERATIONS, ROCKET LAUNCHING 
   221215Z TO 221414Z SEP, ALTERNATE 
   1215Z TO 1414Z DAILY 23 THRU 28 SEP
   IN AREAS BOUND BY:
   A. 25-58.00N 097-13.00W, 26-02.00N 097-13.00W,
      26-04.00N 097-10.00W, 26-04.00N 097-04.00W,
      26-04.00N 096-49.00W, 26-01.00N 096-17.00W,
      26-01.00N 095-12.00W, 25-59.00N 094-36.00W,
      25-59.00N 094-05.00W, 25-25.00N 093-06.00W,
      25-31.00N 091-46.00W, 23-32.00N 088-52.00W,
      23-04.00N 088-33.00W, 22-03.00N 086-24.00W,
      21-38.00N 084-59.00W, 20-59.00N 082-38.00W,
      20-43.00N 081-42.00W, 20-07.00N 079-44.00W,
      19-46.00N 078-47.00W, 19-23.00N 078-04.00W,
      19-19.00N 078-18.00W, 19-34.00N 079-19.00W,
      19-44.00N 079-44.00W, 20-12.00N 081-13.00W,
      20-43.00N 083-13.00W, 21-06.00N 084-54.00W,
      21-43.00N 086-42.00W, 21-59.00N 087-26.00W,
      22-39.00N 089-10.00W, 22-45.00N 089-41.00W,
      22-58.00N 092-36.00W, 24-18.00N 095-02.00W,
      25-38.00N 096-49.00W, 25-48.00N 097-05.00W.
   B. 25-12.00N 092-58.00W, 25-31.00N 093-52.00W,
      25-42.00N 095-24.00W, 26-02.00N 096-32.00W,
      26-04.00N 096-49.00W, 26-04.00N 097-04.00W,
      26-04.00N 097-10.00W, 26-02.00N 097-13.00W,
      25-58.00N 097-13.00W, 25-48.00N 097-05.00W,
      25-41.00N 096-47.00W, 25-02.00N 095-05.00W,
      24-29.00N 094-08.00W, 24-20.00N 093-32.00W,
      24-25.00N 092-52.00W, 24-45.00N 092-43.00W.
2. CANCEL THIS MSG 281514Z SEP 26.


</description>
            <styleUrl>#8</styleUrl>
            <Polygon id="2">
                <outerBoundaryIs>
                    <LinearRing id="6">
                        <coordinates>-97.21666666666667,25.966666666666665,0.0 -97.21666666666667,26.033333333333335,0.0 -97.16666666666667,26.066666666666666,0.0 -97.06666666666666,26.066666666666666,0.0 -96.81666666666666,26.066666666666666,0.0 -96.28333333333333,26.016666666666666,0.0 -95.2,26.016666666666666,0.0 -94.6,25.983333333333334,0.0 -94.08333333333333,25.983333333333334,0.0 -93.1,25.416666666666668,0.0 -91.76666666666667,25.516666666666666,0.0 -88.86666666666666,23.533333333333335,0.0 -88.55,23.066666666666666,0.0 -86.4,22.05,0.0 -84.98333333333333,21.633333333333333,0.0 -82.63333333333334,20.983333333333334,0.0 -81.7,20.716666666666665,0.0 -79.73333333333333,20.116666666666667,0.0 -78.78333333333333,19.766666666666666,0.0 -78.06666666666666,19.383333333333333,0.0 -78.3,19.316666666666666,0.0 -79.31666666666666,19.566666666666666,0.0 -79.73333333333333,19.733333333333334,0.0 -81.21666666666667,20.2,0.0 -83.21666666666667,20.716666666666665,0.0 -84.9,21.1,0.0 -86.7,21.716666666666665,0.0 -87.43333333333334,21.983333333333334,0.0 -89.16666666666667,22.65,0.0 -89.68333333333334,22.75,0.0 -92.6,22.966666666666665,0.0 -95.03333333333333,24.3,0.0 -96.81666666666666,25.633333333333333,0.0 -97.08333333333333,25.8,0.0 -97.21666666666667,25.966666666666665,0.0</coordinates>
                    </LinearRing>
                </outerBoundaryIs>
            </Polygon>
        </Placemark>
        <Placemark id="12">
            <name>NAVAREA IV 897/2026 AREA B</name>
            <description>NAVAREA IV 897/2026 (null)


150802Z SEP 26
NAVAREA IV 897/26.
GULF OF AMERICA.
YUCATAN CHANNEL.
TEXAS.
1. HAZARDOUS OPERATIONS, ROCKET LAUNCHING 
   221215Z TO 221414Z SEP, ALTERNATE 
   1215Z TO 1414Z DAILY 23 THRU 28 SEP
   IN AREAS BOUND BY:
   A. 25-58.00N 097-13.00W, 26-02.00N 097-13.00W,
      26-04.00N 097-10.00W, 26-04.00N 097-04.00W,
      26-04.00N 096-49.00W, 26-01.00N 096-17.00W,
      26-01.00N 095-12.00W, 25-59.00N 094-36.00W,
      25-59.00N 094-05.00W, 25-25.00N 093-06.00W,
      25-31.00N 091-46.00W, 23-32.00N 088-52.00W,
      23-04.00N 088-33.00W, 22-03.00N 086-24.00W,
      21-38.00N 084-59.00W, 20-59.00N 082-38.00W,
      20-43.00N 081-42.00W, 20-07.00N 079-44.00W,
      19-46.00N 078-47.00W, 19-23.00N 078-04.00W,
      19-19.00N 078-18.00W, 19-34.00N 079-19.00W,
      19-44.00N 079-44.00W, 20-12.00N 081-13.00W,
      20-43.00N 083-13.00W, 21-06.00N 084-54.00W,
      21-43.00N 086-42.00W, 21-59.00N 087-26.00W,
      22-39.00N 089-10.00W, 22-45.00N 089-41.00W,
      22-58.00N 092-36.00W, 24-18.00N 095-02.00W,
      25-38.00N 096-49.00W, 25-48.00N 097-05.00W.
   B. 25-12.00N 092-58.00W, 25-31.00N 093-52.00W,
      25-42.00N 095-24.00W, 26-02.00N 096-32.00W,
      26-04.00N 096-49.00W, 26-04.00N 097-04.00W,
      26-04.00N 097-10.00W, 26-02.00N 097-13.00W,
      25-58.00N 097-13.00W, 25-48.00N 097-05.00W,
      25-41.00N 096-47.00W, 25-02.00N 095-05.00W,
      24-29.00N 094-08.00W, 24-20.00N 093-32.00W,
      24-25.00N 092-52.00W, 24-45.00N 092-43.00W.
2. CANCEL THIS MSG 281514Z SEP 26.


</description>
            <styleUrl>#17</styleUrl>
            <Polygon id="11">
                <outerBoundaryIs>
                    <LinearRing id="15">
                        <coordinates>-92.96666666666667,25.2,0.0 -93.86666666666666,25.516666666666666,0.0 -95.4,25.7,0.0 -96.53333333333333,26.033333333333335,0.0 -96.81666666666666,26.066666666666666,0.0 -97.06666666666666,26.066666666666666,0.0 -97.16666666666667,26.066666666666666,0.0 -97.21666666666667,26.033333333333335,0.0 -97.21666666666667,25.966666666666665,0.0 -97.08333333333333,25.8,0.0 -96.78333333333333,25.683333333333334,0.0 -95.08333333333333,25.033333333333335,0.0 -94.13333333333334,24.483333333333334,0.0 -93.53333333333333,24.333333333333332,0.0 -92.86666666666666,24.416666666666668,0.0 -92.71666666666667,24.75,0.0 -92.96666666666667,25.2,0.0</coordinates>
                    </LinearRing>
                </outerBoundaryIs>
            </Polygon>
        </Placemark>
    </Document>
</kml>
