<?xml version="1.0" encoding="UTF-8"?>
<kml xmlns="http://www.opengis.net/kml/2.2" xmlns:gx="http://www.google.com/kml/ext/2.2">
    <Document id="1">
        <Style id="8">
            <LineStyle id="10">
                <colorMode>normal</colorMode>
                <width>1.0</width>
            </LineStyle>
            <PolyStyle id="9">
                <color>4c757575</color>
                <colorMode>normal</colorMode>
                <fill>1</fill>
                <outline>1</outline>
            </PolyStyle>
        </Style>
        <Placemark id="3">
            <name>NAVAREA-PAC-2686-26</name>
            <description>HYDROPAC 2686/2026 (null)


150834Z SEP 26
HYDROPAC 2686/26.
SOUTH PACIFIC.
FRENCH POLYNESIA.
PITCAIRN ISLANDS.
1. HAZARDOUS OPERATIONS, SPACE DEBRIS
   2107Z TO 0108Z DAILY 22 THRU 28 SEP
   IN AREA BOUND BY
   19-51.00S 149-00.00W, 19-23.00S 148-49.00W,
   24-58.00S 133-10.00W, 26-10.00S 129-09.00W,
   27-34.00S 123-03.00W, 28-11.00S 118-33.00W,
   28-45.00S 112-39.00W, 28-18.00S 111-00.00W,
   28-26.00S 103-26.00W, 26-55.00S 101-39.00W,
   26-32.00S 099-12.00W, 25-17.00S 091-56.00W,
   23-54.00S 083-47.00W, 27-17.00S 082-49.00W,
   30-21.00S 082-47.00W, 31-02.00S 085-34.00W,
   30-38.00S 087-34.00W, 30-58.00S 093-06.00W,
   31-31.00S 102-06.00W, 31-15.00S 106-53.00W,
   30-36.00S 113-01.00W, 29-19.00S 119-18.00W,
   28-06.00S 125-06.00W, 26-11.00S 132-50.00W.
2. CANCEL THIS MSG 290208Z SEP 26.
</description>
            <styleUrl>#8</styleUrl>
            <Polygon id="2">
                <outerBoundaryIs>
                    <LinearRing id="6">
                        <coordinates>-149.0,-19.85,0.0 -148.81666666666666,-19.383333333333333,0.0 -133.16666666666666,-24.966666666666665,0.0 -129.15,-26.166666666666668,0.0 -123.05,-27.566666666666666,0.0 -118.55,-28.183333333333334,0.0 -112.65,-28.75,0.0 -111.0,-28.3,0.0 -103.43333333333334,-28.433333333333334,0.0 -101.65,-26.916666666666668,0.0 -99.2,-26.533333333333335,0.0 -91.93333333333334,-25.283333333333335,0.0 -83.78333333333333,-23.9,0.0 -82.81666666666666,-27.283333333333335,0.0 -82.78333333333333,-30.35,0.0 -85.56666666666666,-31.033333333333335,0.0 -87.56666666666666,-30.633333333333333,0.0 -93.1,-30.966666666666665,0.0 -102.1,-31.516666666666666,0.0 -106.88333333333334,-31.25,0.0 -113.01666666666667,-30.6,0.0 -119.3,-29.316666666666666,0.0 -125.1,-28.1,0.0 -132.83333333333334,-26.183333333333334,0.0 -149.0,-19.85,0.0</coordinates>
                    </LinearRing>
                </outerBoundaryIs>
            </Polygon>
        </Placemark>
    </Document>
</kml>
